[{"OBJECT_NAME":"STARLINK-30360","OBJECT_ID":"2023-134F","EPOCH":"2026-03-09T10:15:23.943744","MEAN_MOTION":15.26742217,"ECCENTRICITY":0.00011889,"INCLINATION":42.998,"RA_OF_ASC_NODE":196.2238,"ARG_OF_PERICENTER":219.3661,"MEAN_ANOMALY":140.7104,"EPHEMERIS_TYPE":0,"CLASSIFICATION_TYPE":"U","NORAD_CAT_ID":57776,"ELEMENT_SET_NO":999,"REV_AT_EPOCH":13946,"BSTAR":9.408504e-6,"MEAN_MOTION_DOT":-7.0e-8,"MEAN_MOTION_DDOT":0},{"OBJECT_NAME":"OBJECT C","OBJECT_ID":"2024-085C","EPOCH":"2026-03-09T22:49:58.289376","MEAN_MOTION":15.31893958,"ECCENTRICITY":0.00283931,"INCLINATION":97.3357,"RA_OF_ASC_NODE":145.6975,"ARG_OF_PERICENTER":37.3887,"MEAN_ANOMALY":322.9323,"EPHEMERIS_TYPE":0,"CLASSIFICATION_TYPE":"U","NORAD_CAT_ID":59679,"ELEMENT_SET_NO":999,"REV_AT_EPOCH":10244,"BSTAR":0.00039740634,"MEAN_MOTION_DOT":0.0001232,"MEAN_MOTION_DDOT":0}]
